GLOBALSTAR M084         
1 38040U 11080A   23318.91448447 -.00000081  00000+0  12862-3 0  9994
2 38040  52.0033  15.0367 0000469 146.9420  24.0800 12.62267662549380
GLOBALSTAR M080         
1 38041U 11080B   23318.88823870 -.00000084  00000+0  10984-3 0  9994
2 38041  52.0086  16.5193 0000685 147.3831  24.3896 12.62266094549503
GLOBALSTAR M082         
1 38042U 11080C   23318.82191848 -.00000089  00000+0  83407-4 0  9998
2 38042  52.0092 332.1056 0000771  21.4061 150.0573 12.62267980550202
GLOBALSTAR M092         
1 38043U 11080D   23318.71094062 -.00000107  00000+0 -17752-4 0  9999
2 38043  52.0095  62.7841 0000551 154.6323 352.9826 12.62262575548644
GLOBALSTAR M090         
1 38044U 11080E   23318.76881249 -.00000090  00000+0  78589-4 0  9991
2 38044  51.9900 326.8226 0000560  46.8544 124.0023 12.62263466550310
GLOBALSTAR M086         
1 38045U 11080F   23318.79556742 -.00000088  00000+0  89074-4 0  9990
2 38045  51.9911 327.2487 0001247 101.6179  69.8456 12.62264292550262
GLOBALSTAR M097         
1 39072U 13005A   23318.46759195 -.00000085  00000+0  10435-3 0  9992
2 39072  52.0047 242.2034 0001080  62.1038 297.9938 12.62272513497476
GLOBALSTAR M093         
1 39073U 13005B   23318.75784774 -.00000070  00000+0  19047-3 0  9998
2 39073  51.9809 235.5521 0001343  64.6325 295.4681 12.62268784497467
